IRIDIUM 57              
1 25273U 98019B   24128.01168179  .00000528  00000+0  17782-3 0  9998
2 25273  86.3925 315.3811 0002169  89.1514 270.9931 14.35182782366728
IRIDIUM 63              
1 25286U 98021B   24128.05113184  .00000656  00000+0  22048-3 0  9998
2 25286  86.3980 252.2368 0002246  98.6328 261.5123 14.35727679365822
IRIDIUM 69              
1 25319U 98026A   24127.89292553  .00000849  00000+0  26383-3 0  9999
2 25319  86.3953 266.8221 0000390 339.0887  21.0296 14.39944616364575
IRIDIUM 71              
1 25320U 98026B   24127.90197546  .00000794  00000+0  24458-3 0  9999
2 25320  86.3958 261.5847 0002548  40.4773 319.6615 14.40263979365347
IRIDIUM 73              
1 25344U 98032C   24128.18674543  .00000963  00000+0  24121-3 0  9995
2 25344  86.4469 218.9608 0001679  91.9534 268.1863 14.50484223371980
IRIDIUM 82              
1 25467U 98051A   24127.91282069  .00013114  00000+0  67763-3 0  9991
2 25467  86.3696 305.3471 0130083  13.3915 347.0719 15.08988101362265
IRIDIUM 2               
1 25527U 98066A   24128.04612728  .00164019  00000+0  11954-2 0  9999
2 25527  85.5033 330.0161 0003715 122.4870 237.6760 15.72806624400939
